ONEWEB-0570             
1 55149U 23004K   23263.25001157 -.00834111  00000+0 -24388+0 0  9993
2 55149  86.7790 180.4141 0003838  82.6768  77.2177 14.46849375 37317
ONEWEB-0571             
1 55150U 23004L   23262.91667824 -.00888713  00000+0 -24682+0 0  9990
2 55150  86.7693 180.6233 0004407  73.9013 258.0574 14.49497459 37263
ONEWEB-0572             
1 55151U 23004M   23262.08527465  .00000013  00000+0  13418-5 0  9993
2 55151  87.9234 204.9805 0001476  69.7152 290.4138 13.17647867 35519
ONEWEB-0573             
1 55152U 23004N   23262.91667824 -.00904540  00000+0 -26000+0 0  9995
2 55152  86.7681 180.6088 0004554  77.9767 344.0863 14.47907720 37265
ONEWEB-0588             
1 55153U 23004P   23262.91667824 -.00894596  00000+0 -25147+0 0  9996
2 55153  86.7648 180.6550 0007391  84.1425 158.9372 14.48924159 37258
ONEWEB-0598             
1 55154U 23004Q   23262.38210273 -.00000202  00000+0 -60625-3 0  9997
2 55154  87.8948 220.1003 0002825  51.5545 308.5836 13.11416844 34605
ONEWEB-0599             
1 55155U 23004R   23262.12323388  .00000029  00000+0  40480-4 0  9995
2 55155  87.9190 204.9493 0002206  78.1928 281.9450 13.17652350 35520
ONEWEB-0614             
1 55156U 23004S   23262.37783883 -.00000370  00000+0 -10808-2 0  9993
2 55156  87.8966 220.0779 0001656  91.5564 268.5753 13.11413679 34552
